SES-2                   
1 37809U 11049A   26203.45451410 -.00000192  00000+0  00000+0 0  9990
2 37809   0.1459  90.6837 0002934  26.9157 259.2147  1.00271416 54314
ARABSAT-5C              
1 37810U 11049B   26203.33314806  .00000127  00000+0  00000+0 0  9993
2 37810   0.0477   1.3110 0003774 139.7953 298.9338  1.00275179 54398
EUTELSAT 7 WEST A       
1 37816U 11051A   26203.32768803 -.00000057  00000+0  00000+0 0  9994
2 37816   0.0606   5.0083 0004955 125.1511 280.5505  1.00272235 54224
QUETZSAT 1              
1 37826U 11054A   26203.45650744 -.00000238  00000+0  00000+0 0  9997
2 37826   0.0353 285.1179 0002967 200.3449 262.0775  1.00271283 50220
INTELSAT 18 (IS-18)     
1 37834U 11056A   26203.53308565  .00000056  00000+0  00000+0 0  9995
2 37834   0.0321 262.0410 0001969 229.5420 180.5916  1.00271116 54162
EUTELSAT 16A            
1 37836U 11057A   26203.33236806  .00000107  00000+0  00000+0 0  9991
2 37836   0.0489  38.2635 0005501  84.1992 313.2592  1.00271153  7687
VIASAT-1                
1 37843U 11059A   26203.44896740 -.00000020  00000+0  00000+0 0  9997
2 37843   0.0160  51.0060 0002594  64.2234 231.4799  1.00271520 47674
BEIDOU-2 IGSO-5         
1 37948U 11073A   26183.72937883 -.00000128  00000+0  00000+0 0  9990
2 37948  47.6496 271.3544 0114527 222.0502 141.5350  1.00270596 53296
LUCH-5A                 
1 37951U 11074B   26203.44787147 -.00000052  00000+0  00000+0 0  9999
2 37951   8.8408  73.2870 0002888  61.8063 133.3744  1.00274767 53403
NIGCOMSAT 1R            
1 38014U 11077A   26203.48016755  .00000148  00000+0  00000+0 0  9992
2 38014   0.0417 106.5815 0002250 246.5765 162.4400  1.00275138 53316
WGS F4 (USA 233)        
1 38070U 12003A   26203.34666812 -.00000211  00000+0  00000+0 0  9996
2 38070   0.0193  58.2835 0000233 272.7534 182.2648  1.00270598 44508
SES-4                   
1 38087U 12007A   26203.32482802 -.00000165  00000+0  00000+0 0  9999
2 38087   0.0239  33.1610 0002392  91.3480 270.5000  1.00270138 52572
BEIDOU-2 G5             
1 38091U 12008A   26203.62591083  .00000058  00000+0  00000+0 0  9990
2 38091   3.6601  69.4735 0007081 271.3589 243.5281  1.00273248 52722
MUOS-1                  
1 38093U 12009A   26203.43169936 -.00000128  00000+0  00000+0 0  9999
2 38093   5.5458  47.1018 0056334   3.7452 304.7863  1.00271327 52792
INTELSAT 22 (IS-22)     
1 38098U 12011A   26203.48606091 -.00000055  00000+0  00000+0 0  9999
2 38098   0.0079  23.2868 0002035 122.0850  41.9370  1.00271557  7541
APSTAR-7                
1 38107U 12013A   26203.62946418 -.00000098  00000+0  00000+0 0  9995
2 38107   0.0392  95.5918 0003375  33.4704 114.4149  1.00271842 52164
YAHSAT 1B               
1 38245U 12016A   26203.48120756  .00000130  00000+0  00000+0 0  9990
2 38245   0.0909  88.9712 0002737  27.0411  45.0517  1.00271923 45962
AEHF-2 (USA 235)        
1 38254U 12019A   26203.32595469 -.00000137  00000+0  00000+0 0  9991
2 38254   6.7290  57.2172 0002133  68.7261 274.9898  1.00271721  7332
JCSAT-13                
1 38331U 12023A   26203.52822449 -.00000353  00000+0  00000+0 0  9995
2 38331   0.0141  26.4816 0002400  98.5240 129.4352  1.00271739 51896
VINASAT-2               
1 38332U 12023B   26203.52753090 -.00000325  00000+0  00000+0 0  9990
2 38332   0.0324 301.7537 0002444 175.6320 144.6393  1.00271277 47013
NIMIQ 6                 
1 38342U 12026A   26203.45373409 -.00000170  00000+0  00000+0 0  9996
2 38342   0.0553 262.9132 0002998 219.7219 249.8011  1.00271242 50761
ZHONGXING-2A            
1 38352U 12028A   26203.63379753 -.00000290  00000+0  00000+0 0  9990
2 38352   1.5442  83.4344 0001588  27.0438 156.3031  1.00273561 51652
INTELSAT 19 (IS-19)     
1 38356U 12030A   26203.50044575 -.00000053  00000+0  00000+0 0  9991
2 38356   0.0158  45.3721 0003066  73.8274 167.2012  1.00272938 50803
ECHOSTAR 17             
1 38551U 12035A   26203.43169936 -.00000072  00000+0  00000+0 0  9995
2 38551   0.0187  61.5668 0002231  55.0540 231.8631  1.00274341 51416
METEOSAT-10 (MSG-3)     
1 38552U 12035B   26203.32916138 -.00000007  00000+0  00000+0 0  9996
2 38552   4.7526  60.8450 0001480  19.6076 338.1718  1.00273082 51206
SES-5                   
1 38652U 12036A   26203.33011471  .00000037  00000+0  00000+0 0  9997
2 38652   0.0446 320.3526 0002058 156.7771 306.7623  1.00271613 44804
INTELSAT 20 (IS-20)     
1 38740U 12043A   26203.48528090 -.00000021  00000+0  00000+0 0  9993
2 38740   0.0143  77.4647 0001327 106.1118 359.8560  1.00271866 51102
HYLAS 2                 
1 38741U 12043B   26202.26822662 -.00000263  00000+0  00000+0 0  9999
2 38741   2.5130  80.6497 0001599 221.2518  21.2291  1.00330437 51111
INTELSAT 21 (IS-21)     
1 38749U 12045A   26203.46023412 -.00000281  00000+0  00000+0 0  9998
2 38749   0.0367 255.2041 0001887 235.8390 276.8469  1.00271007 50872
ASTRA 2F                
1 38778U 12051A   26203.47722087  .00000153  00000+0  00000+0 0  9999
2 38778   0.0709 252.4112 0003280 288.1464 319.6201  1.00273706 41490
GSAT-10                 
1 38779U 12051B   26203.41695645 -.00000162  00000+0  00000+0 0  9994
2 38779   0.0731 263.1821 0007647 193.0679  77.0302  1.00272627 50459
