OBJECT_NAME,OBJECT_ID,EPOCH,MEAN_MOTION,ECCENTRICITY,INCLINATION,RA_OF_ASC_NODE,ARG_OF_PERICENTER,MEAN_ANOMALY,EPHEMERIS_TYPE,CLASSIFICATION_TYPE,NORAD_CAT_ID,ELEMENT_SET_NO,REV_AT_EPOCH,BSTAR,MEAN_MOTION_DOT,MEAN_MOTION_DDOT
SES-2,2011-049A,2026-07-22T10:54:30.018240,1.00271416,.00029347,0.1459,90.6837,26.9157,259.2147,0,U,37809,999,5431,0,-.192E-5,0
ARABSAT-5C,2011-049B,2026-07-22T07:59:43.992384,1.00275179,.00037745,0.0477,1.3110,139.7953,298.9338,0,U,37810,999,5439,0,.127E-5,0
EUTELSAT 7 WEST A,2011-051A,2026-07-22T07:51:52.245792,1.00272235,.00049551,0.0606,5.0083,125.1511,280.5505,0,U,37816,999,5422,0,-.57E-6,0
QUETZSAT 1,2011-054A,2026-07-22T10:57:22.242816,1.00271283,.00029673,0.0353,285.1179,200.3449,262.0775,0,U,37826,999,5022,0,-.238E-5,0
INTELSAT 18 (IS-18),2011-056A,2026-07-22T12:47:38.600160,1.00271116,.00019699,0.0321,262.0410,229.5420,180.5916,0,U,37834,999,5416,0,.56E-6,0
EUTELSAT 16A,2011-057A,2026-07-22T07:58:36.600384,1.00271153,.00055014,0.0489,38.2635,84.1992,313.2592,0,U,37836,999,768,0,.107E-5,0
VIASAT-1,2011-059A,2026-07-22T10:46:30.783360,1.00271520,.00025948,0.0160,51.0060,64.2234,231.4799,0,U,37843,999,4767,0,-.2E-6,0
BEIDOU-2 IGSO-5,2011-073A,2026-07-02T17:30:18.330912,1.00270596,.01145273,47.6496,271.3544,222.0502,141.5350,0,U,37948,999,5329,0,-.128E-5,0
LUCH-5A,2011-074B,2026-07-22T10:44:56.095008,1.00274767,.0002888,8.8408,73.2870,61.8063,133.3744,0,U,37951,999,5340,0,-.52E-6,0
NIGCOMSAT 1R,2011-077A,2026-07-22T11:31:26.476320,1.00275138,.00022508,0.0417,106.5815,246.5765,162.4400,0,U,38014,999,5331,0,.148E-5,0
WGS F4 (USA 233),2012-003A,2026-07-22T08:19:12.125568,1.00270598,.00002332,0.0193,58.2835,272.7534,182.2648,0,U,38070,999,4450,0,-.211E-5,0
SES-4,2012-007A,2026-07-22T07:47:45.140928,1.00270138,.00023922,0.0239,33.1610,91.3480,270.5000,0,U,38087,999,5257,0,-.165E-5,0
BEIDOU-2 G5,2012-008A,2026-07-22T15:01:18.695712,1.00273248,.00070816,3.6601,69.4735,271.3589,243.5281,0,U,38091,999,5272,0,.58E-6,0
MUOS-1,2012-009A,2026-07-22T10:21:38.824704,1.00271327,.00563349,5.5458,47.1018,3.7452,304.7863,0,U,38093,999,5279,0,-.128E-5,0
INTELSAT 22 (IS-22),2012-011A,2026-07-22T11:39:55.662624,1.00271557,.00020358,0.0079,23.2868,122.0850,41.9370,0,U,38098,999,754,0,-.55E-6,0
APSTAR-7,2012-013A,2026-07-22T15:06:25.705152,1.00271842,.0003375,0.0392,95.5918,33.4704,114.4149,0,U,38107,999,5216,0,-.98E-6,0
YAHSAT 1B,2012-016A,2026-07-22T11:32:56.333184,1.00271923,.00027375,0.0909,88.9712,27.0411,45.0517,0,U,38245,999,4596,0,.13E-5,0
AEHF-2 (USA 235),2012-019A,2026-07-22T07:49:22.485216,1.00271721,.00021336,6.7290,57.2172,68.7261,274.9898,0,U,38254,999,733,0,-.137E-5,0
JCSAT-13,2012-023A,2026-07-22T12:40:38.595936,1.00271739,.00024005,0.0141,26.4816,98.5240,129.4352,0,U,38331,999,5189,0,-.353E-5,0
VINASAT-2,2012-023B,2026-07-22T12:39:38.669760,1.00271277,.00024442,0.0324,301.7537,175.6320,144.6393,0,U,38332,999,4701,0,-.325E-5,0
NIMIQ 6,2012-026A,2026-07-22T10:53:22.625376,1.00271242,.00029981,0.0553,262.9132,219.7219,249.8011,0,U,38342,999,5076,0,-.17E-5,0
ZHONGXING-2A,2012-028A,2026-07-22T15:12:40.106592,1.00273561,.0001588,1.5442,83.4344,27.0438,156.3031,0,U,38352,999,5165,0,-.29E-5,0
INTELSAT 19 (IS-19),2012-030A,2026-07-22T12:00:38.512800,1.00272938,.00030669,0.0158,45.3721,73.8274,167.2012,0,U,38356,999,5080,0,-.53E-6,0
ECHOSTAR 17,2012-035A,2026-07-22T10:21:38.824704,1.00274341,.00022318,0.0187,61.5668,55.0540,231.8631,0,U,38551,999,5141,0,-.72E-6,0
METEOSAT-10 (MSG-3),2012-035B,2026-07-22T07:53:59.543232,1.00273082,.00014802,4.7526,60.8450,19.6076,338.1718,0,U,38552,999,5120,0,-.7E-7,0
SES-5,2012-036A,2026-07-22T07:55:21.910944,1.00271613,.00020581,0.0446,320.3526,156.7771,306.7623,0,U,38652,999,4480,0,.37E-6,0
INTELSAT 20 (IS-20),2012-043A,2026-07-22T11:38:48.269760,1.00271866,.00013271,0.0143,77.4647,106.1118,359.8560,0,U,38740,999,5110,0,-.21E-6,0
HYLAS 2,2012-043B,2026-07-21T06:26:14.779968,1.00330437,.00015995,2.5130,80.6497,221.2518,21.2291,0,U,38741,999,5111,0,-.263E-5,0
INTELSAT 21 (IS-21),2012-045A,2026-07-22T11:02:44.227968,1.00271007,.00018874,0.0367,255.2041,235.8390,276.8469,0,U,38749,999,5087,0,-.281E-5,0
ASTRA 2F,2012-051A,2026-07-22T11:27:11.883168,1.00273706,.00032804,0.0709,252.4112,288.1464,319.6201,0,U,38778,999,4149,0,.153E-5,0
GSAT-10,2012-051B,2026-07-22T10:00:25.037280,1.00272627,.00076471,0.0731,263.1821,193.0679,77.0302,0,U,38779,999,5045,0,-.162E-5,0
